[{"OBJECT_NAME":"STARLINK-34332","OBJECT_ID":"2025-117L","EPOCH":"2026-03-09T05:55:59.078784","MEAN_MOTION":15.30195803,"ECCENTRICITY":0.00011987,"INCLINATION":53.1624,"RA_OF_ASC_NODE":41.9617,"ARG_OF_PERICENTER":71.59,"MEAN_ANOMALY":288.5231,"EPHEMERIS_TYPE":0,"CLASSIFICATION_TYPE":"U","NORAD_CAT_ID":64213,"ELEMENT_SET_NO":999,"REV_AT_EPOCH":4448,"BSTAR":0.00062533404,"MEAN_MOTION_DOT":0.00018204,"MEAN_MOTION_DDOT":0},{"OBJECT_NAME":"USA 120","OBJECT_ID":"1996-029B","EPOCH":"2026-03-09T10:42:29.277216","MEAN_MOTION":13.46042729,"ECCENTRICITY":0.08443543,"INCLINATION":63.3197,"RA_OF_ASC_NODE":93.7012,"ARG_OF_PERICENTER":48.2921,"MEAN_ANOMALY":318.7269,"EPHEMERIS_TYPE":0,"CLASSIFICATION_TYPE":"U","NORAD_CAT_ID":23907,"ELEMENT_SET_NO":999,"REV_AT_EPOCH":9022,"BSTAR":0.00029745642,"MEAN_MOTION_DOT":1.67e-5,"MEAN_MOTION_DDOT":0}]
